{
    "links": {
        "self": "http://www.neowsapp.com/rest/v1/neo/3313731?api_key=iIulBulltgU6a56xZRHN4H3l9WmuAYTsLGpBGhQ2"
    },
    "id": "3313731",
    "neo_reference_id": "3313731",
    "name": "(2006 BY7)",
    "designation": "2006 BY7",
    "nasa_jpl_url": "http://ssd.jpl.nasa.gov/sbdb.cgi?sstr=3313731",
    "absolute_magnitude_h": 25.9,
    "estimated_diameter": {
        "kilometers": {
            "estimated_diameter_min": 0.0175612318,
            "estimated_diameter_max": 0.0392681082
        },
        "meters": {
            "estimated_diameter_min": 17.561231848,
            "estimated_diameter_max": 39.2681081809
        },
        "miles": {
            "estimated_diameter_min": 0.0109120402,
            "estimated_diameter_max": 0.0244000636
        },
        "feet": {
            "estimated_diameter_min": 57.6155918963,
            "estimated_diameter_max": 128.8323800441
        }
    },
    "is_potentially_hazardous_asteroid": false,
    "close_approach_data": [
        {
            "close_approach_date": "2006-01-12",
            "close_approach_date_full": "2006-Jan-12 09:59",
            "epoch_date_close_approach": 1137059940000,
            "relative_velocity": {
                "kilometers_per_second": "5.6750133743",
                "kilometers_per_hour": "20430.0481475353",
                "miles_per_hour": "12694.4374170061"
            },
            "miss_distance": {
                "astronomical": "0.0426712793",
                "lunar": "16.5991276477",
                "kilometers": "6383532.493455091",
                "miles": "3966543.1603826158"
            },
            "orbiting_body": "Earth"
        }
    ],
    "orbital_data": {
        "orbit_id": "9",
        "orbit_determination_date": "2017-04-06 09:09:20",
        "first_observation_date": "2006-01-22",
        "last_observation_date": "2006-01-26",
        "data_arc_in_days": 4,
        "observations_used": 26,
        "orbit_uncertainty": "8",
        "minimum_orbit_intersection": ".0416507",
        "jupiter_tisserand_invariant": "3.842",
        "epoch_osculation": "2453759.5",
        "eccentricity": ".4550340079009758",
        "semi_major_axis": "1.87543750943856",
        "inclination": "3.175465208648855",
        "ascending_node_longitude": "302.8206220694931",
        "orbital_period": "938.10688545824",
        "perihelion_distance": "1.022049662950908",
        "perihelion_argument": "162.2187192111644",
        "aphelion_distance": "2.728825355926212",
        "perihelion_time": "2453742.256404305708",
        "mean_anomaly": "6.617257101692446",
        "mean_motion": ".3837515805292802",
        "equinox": "J2000",
        "orbit_class": {
            "orbit_class_type": "AMO",
            "orbit_class_description": "Near-Earth asteroid orbits similar to that of 1221 Amor",
            "orbit_class_range": "1.017 AU < q (perihelion) < 1.3 AU"
        }
    },
    "is_sentry_object": false
}